GLOBALSTAR M067         
1 32263U 07048A   26024.40108979 -.00000055  00000+0  31262-3 0  9994
2 32263  51.9727 108.6336 0001801 106.5548 332.9627 12.40684210836945
GLOBALSTAR M070         
1 32264U 07048B   26024.86127880 -.00000075  00000+0  16022-3 0  9996
2 32264  51.9733 173.1859 0000773 100.6237  56.2947 12.62329778841662
GLOBALSTAR M066         
1 32265U 07048C   26024.71693487 -.00000089  00000+0  44715-4 0  9998
2 32265  51.9592 109.7749 0005562 105.9599  61.8495 12.30385190842564
GLOBALSTAR M068         
1 32266U 07048D   26024.91984152 -.00000055  00000+0  26848-3 0  9992
2 32266  51.9907 346.3324 0000694 279.7022 115.9799 12.62838766845574
GLOBALSTAR M079         
1 37188U 10054A   26024.83186360 -.00000085  00000+0  10574-3 0  9999
2 37188  52.0017 185.0643 0001203  85.9828  61.3416 12.62270147704449
GLOBALSTAR M074         
1 37189U 10054B   26024.86032535 -.00000090  00000+0  79113-4 0  9998
2 37189  51.9992 184.2662 0001154 102.5591  53.3734 12.62265646705050
GLOBALSTAR M076         
1 37190U 10054C   26024.88883620 -.00000080  00000+0  13066-3 0  9994
2 37190  52.0006 184.3709 0001296  97.5095  67.5015 12.62269911704778
GLOBALSTAR M077         
1 37191U 10054D   26024.75021652 -.00000050  00000+0  51870-3 0  9992
2 37191  51.9945 183.5966 0001673  95.5237 277.9356 11.68178046704385
